{"type": "FeatureCollection", "features": [ {"type": "Feature", "properties": {"norad_id": 45344, "name": "BEIDOU-3 G2 (C60)", "group": "gnss", "lat": 1.728806913403891, "lon": 86.97239356064335, "alt_km": 35798.648211122, "timestamp": "2025-12-14T18:52:55.747167+00:00", "meta": {"OBJECT_NAME": "BEIDOU-3 G2 (C60)", "OBJECT_ID": "2020-017A", "EPOCH": "2025-12-14T00:06:06.851808", "MEAN_MOTION": 1.00273045, "ECCENTRICITY": 0.00044407, "INCLINATION": 2.4998, "RA_OF_ASC_NODE": 43.8817, "ARG_OF_PERICENTER": 268.7357, "MEAN_ANOMALY": 211.8758, "EPHEMERIS_TYPE": 0, "CLASSIFICATION_TYPE": "U", "NORAD_CAT_ID": 45344, "ELEMENT_SET_NO": 999, "REV_AT_EPOCH": 2140, "BSTAR": 0, "MEAN_MOTION_DOT": -1.25e-06, "MEAN_MOTION_DDOT": 0}, "tle": {"line1": "1 45344U 20017A   25348.00424597 -.00000125  00000+0  00000+0 0  9990", "line2": "2 45344   2.4998  43.8817 0004440 268.7357 211.8758  1.00273045 21406"}}, "geometry": {"type": "Point", "coordinates": [86.97239356064335, 1.728806913403891]}}, {"type": "Feature", "properties": {"norad_id": 45358, "name": "COSMOS 2545 (760)", "group": "gnss", "lat": -12.830349870551412, "lon": -47.36157719586875, "alt_km": 19135.62474096056, "timestamp": "2025-12-14T18:52:55.747181+00:00", "meta": {"OBJECT_NAME": "COSMOS 2545 (760)", "OBJECT_ID": "2020-018A", "EPOCH": "2025-12-10T13:58:04.872576", "MEAN_MOTION": 2.13102273, "ECCENTRICITY": 0.00118432, "INCLINATION": 64.471, "RA_OF_ASC_NODE": 319.0455, "ARG_OF_PERICENTER": 248.8319, "MEAN_ANOMALY": 111.0396, "EPHEMERIS_TYPE": 0, "CLASSIFICATION_TYPE": "U", "NORAD_CAT_ID": 45358, "ELEMENT_SET_NO": 999, "REV_AT_EPOCH": 4464, "BSTAR": 0, "MEAN_MOTION_DOT": -5.2e-07, "MEAN_MOTION_DDOT": 0}, "tle": {"line1": "1 45358U 20018A   25344.58200084 -.00000052  00000+0  00000+0 0  9997", "line2": "2 45358  64.4710 319.0455 0011843 248.8319 111.0396  2.13102273 44648"}}, "geometry": {"type": "Point", "coordinates": [-47.36157719586875, -12.830349870551412]}}, {"type": "Feature", "properties": {"norad_id": 45807, "name": "BEIDOU-3 G3 (C61)", "group": "gnss", "lat": 1.5657203546962652, "lon": 117.54053379845989, "alt_km": 35791.925915432024, "timestamp": "2025-12-14T18:52:55.747192+00:00", "meta": {"OBJECT_NAME": "BEIDOU-3 G3 (C61)", "OBJECT_ID": "2020-040A", "EPOCH": "2025-12-08T17:33:17.532288", "MEAN_MOTION": 1.00275813, "ECCENTRICITY": 0.00060306, "INCLINATION": 1.9816, "RA_OF_ASC_NODE": 66.5886, "ARG_OF_PERICENTER": 306.262, "MEAN_ANOMALY": 78.7159, "EPHEMERIS_TYPE": 0, "CLASSIFICATION_TYPE": "U", "NORAD_CAT_ID": 45807, "ELEMENT_SET_NO": 999, "REV_AT_EPOCH": 2016, "BSTAR": 0, "MEAN_MOTION_DOT": -3.52e-06, "MEAN_MOTION_DDOT": 0}, "tle": {"line1": "1 45807U 20040A   25342.73145292 -.00000352  00000+0  00000+0 0  9998", "line2": "2 45807   1.9816  66.5886 0006030 306.2620  78.7159  1.00275813 20161"}}, "geometry": {"type": "Point", "coordinates": [117.54053379845989, 1.5657203546962652]}}, {"type": "Feature", "properties": {"norad_id": 45854, "name": "GPS BIII-3  (PRN 23)", "group": "gnss", "lat": 18.579763500246592, "lon": 48.95086406792131, "alt_km": 20340.986560551308, "timestamp": "2025-12-14T18:52:55.747205+00:00", "meta": {"OBJECT_NAME": "GPS BIII-3  (PRN 23)", "OBJECT_ID": "2020-041A", "EPOCH": "2025-12-11T05:23:02.925024", "MEAN_MOTION": 2.00561914, "ECCENTRICITY": 0.006046, "INCLINATION": 56.5461, "RA_OF_ASC_NODE": 36.2442, "ARG_OF_PERICENTER": 203.3747, "MEAN_ANOMALY": 126.9066, "EPHEMERIS_TYPE": 0, "CLASSIFICATION_TYPE": "U", "NORAD_CAT_ID": 45854, "ELEMENT_SET_NO": 999, "REV_AT_EPOCH": 4026, "BSTAR": 0, "MEAN_MOTION_DOT": -9.4e-07, "MEAN_MOTION_DDOT": 0}, "tle": {"line1": "1 45854U 20041A   25345.22433941 -.00000094  00000+0  00000+0 0  9992", "line2": "2 45854  56.5461  36.2442 0060460 203.3747 126.9066  2.00561914 40268"}}, "geometry": {"type": "Point", "coordinates": [48.95086406792131, 18.579763500246592]}}, {"type": "Feature", "properties": {"norad_id": 46114, "name": "GALAXY 30 (WAAS/PRN 135)", "group": "gnss", "lat": -0.0389048446007607, "lon": -118.07183504453432, "alt_km": 35777.049325500644, "timestamp": "2025-12-14T18:52:55.747216+00:00", "meta": {"OBJECT_NAME": "GALAXY 30 (WAAS/PRN 135)", "OBJECT_ID": "2020-056C", "EPOCH": "2025-12-13T16:16:42.007872", "MEAN_MOTION": 1.00273279, "ECCENTRICITY": 0.00021703, "INCLINATION": 0.0186, "RA_OF_ASC_NODE": 344.0931, "ARG_OF_PERICENTER": 279.4868, "MEAN_ANOMALY": 298.2109, "EPHEMERIS_TYPE": 0, "CLASSIFICATION_TYPE": "U", "NORAD_CAT_ID": 46114, "ELEMENT_SET_NO": 999, "REV_AT_EPOCH": 1943, "BSTAR": 0, "MEAN_MOTION_DOT": 5.2e-07, "MEAN_MOTION_DDOT": 0}, "tle": {"line1": "1 46114U 20056C   25347.67826398  .00000052  00000+0  00000+0 0  9994", "line2": "2 46114   0.0186 344.0931 0002170 279.4868 298.2109  1.00273279 19430"}}, "geometry": {"type": "Point", "coordinates": [-118.07183504453432, -0.0389048446007607]}}, {"type": "Feature", "properties": {"norad_id": 46805, "name": "COSMOS 2547 (705K)", "group": "gnss", "lat": -19.247257697897005, "lon": 28.1819731214629, "alt_km": 19118.729496842712, "timestamp": "2025-12-14T18:52:55.747228+00:00", "meta": {"OBJECT_NAME": "COSMOS 2547 (705K)", "OBJECT_ID": "2020-075A", "EPOCH": "2025-12-13T02:47:35.788416", "MEAN_MOTION": 2.13100044, "ECCENTRICITY": 0.00062786, "INCLINATION": 64.5959, "RA_OF_ASC_NODE": 198.6839, "ARG_OF_PERICENTER": 228.7725, "MEAN_ANOMALY": 131.2461, "EPHEMERIS_TYPE": 0, "CLASSIFICATION_TYPE": "U", "NORAD_CAT_ID": 46805, "ELEMENT_SET_NO": 999, "REV_AT_EPOCH": 3994, "BSTAR": 0, "MEAN_MOTION_DOT": 7.7e-07, "MEAN_MOTION_DDOT": 0}, "tle": {"line1": "1 46805U 20075A   25347.11638644  .00000077  00000+0  00000+0 0  9993", "line2": "2 46805  64.5959 198.6839 0006278 228.7725 131.2461  2.13100044 39941"}}, "geometry": {"type": "Point", "coordinates": [28.1819731214629, -19.247257697897005]}}, {"type": "Feature", "properties": {"norad_id": 46826, "name": "GPS BIII-4  (PRN 14)", "group": "gnss", "lat": -5.007676814043931, "lon": -145.38143922469607, "alt_km": 20332.0706058674, "timestamp": "2025-12-14T18:52:55.747241+00:00", "meta": {"OBJECT_NAME": "GPS BIII-4  (PRN 14)", "OBJECT_ID": "2020-078A", "EPOCH": "2025-12-13T00:53:29.004000", "MEAN_MOTION": 2.00566814, "ECCENTRICITY": 0.00646719, "INCLINATION": 54.015, "RA_OF_ASC_NODE": 218.3288, "ARG_OF_PERICENTER": 203.3817, "MEAN_ANOMALY": 326.8, "EPHEMERIS_TYPE": 0, "CLASSIFICATION_TYPE": "U", "NORAD_CAT_ID": 46826, "ELEMENT_SET_NO": 999, "REV_AT_EPOCH": 3777, "BSTAR": 0, "MEAN_MOTION_DOT": 2.7e-07, "MEAN_MOTION_DDOT": 0}, "tle": {"line1": "1 46826U 20078A   25347.03714125  .00000027  00000+0  00000+0 0  9994", "line2": "2 46826  54.0150 218.3288 0064671 203.3817 326.8000  2.00566814 37778"}}, "geometry": {"type": "Point", "coordinates": [-145.38143922469607, -5.007676814043931]}}, {"type": "Feature", "properties": {"norad_id": 48859, "name": "GPS BIII-5  (PRN 11)", "group": "gnss", "lat": 1.1808736361423589, "lon": 159.0470532819437, "alt_km": 20145.618830243602, "timestamp": "2025-12-14T18:52:55.747253+00:00", "meta": {"OBJECT_NAME": "GPS BIII-5  (PRN 11)", "OBJECT_ID": "2021-054A", "EPOCH": "2025-12-08T04:14:32.423424", "MEAN_MOTION": 2.00553627, "ECCENTRICITY": 0.0024678, "INCLINATION": 55.2581, "RA_OF_ASC_NODE": 340.1367, "ARG_OF_PERICENTER": 233.3994, "MEAN_ANOMALY": 212.8593, "EPHEMERIS_TYPE": 0, "CLASSIFICATION_TYPE": "U", "NORAD_CAT_ID": 48859, "ELEMENT_SET_NO": 999, "REV_AT_EPOCH": 3292, "BSTAR": 0, "MEAN_MOTION_DOT": -8.6e-07, "MEAN_MOTION_DDOT": 0}, "tle": {"line1": "1 48859U 21054A   25342.17676416 -.00000086  00000+0  00000+0 0  9993", "line2": "2 48859  55.2581 340.1367 0024678 233.3994 212.8593  2.00553627 32922"}}, "geometry": {"type": "Point", "coordinates": [159.0470532819437, 1.1808736361423589]}}, {"type": "Feature", "properties": {"norad_id": 49336, "name": "QZS-1R (QZSS/PRN 196)", "group": "gnss", "lat": 32.692909348892904, "lon": 140.34874520447664, "alt_km": 38538.43094831556, "timestamp": "2025-12-14T18:52:55.747267+00:00", "meta": {"OBJECT_NAME": "QZS-1R (QZSS/PRN 196)", "OBJECT_ID": "2021-096A", "EPOCH": "2025-12-13T14:08:09.316608", "MEAN_MOTION": 1.00257492, "ECCENTRICITY": 0.07555271, "INCLINATION": 37.0792, "RA_OF_ASC_NODE": 82.3463, "ARG_OF_PERICENTER": 271.3489, "MEAN_ANOMALY": 75.5912, "EPHEMERIS_TYPE": 0, "CLASSIFICATION_TYPE": "U", "NORAD_CAT_ID": 49336, "ELEMENT_SET_NO": 999, "REV_AT_EPOCH": 1514, "BSTAR": 0, "MEAN_MOTION_DOT": -2.77e-06, "MEAN_MOTION_DDOT": 0}, "tle": {"line1": "1 49336U 21096A   25347.58899672 -.00000277  00000+0  00000+0 0  9993", "line2": "2 49336  37.0792  82.3463 0755527 271.3489  75.5912  1.00257492 15146"}}, "geometry": {"type": "Point", "coordinates": [140.34874520447664, 32.692909348892904]}}, {"type": "Feature", "properties": {"norad_id": 49809, "name": "GSAT0223 (GALILEO 27)", "group": "gnss", "lat": -8.927558050835188, "lon": -19.154288563721323, "alt_km": 23225.26002856798, "timestamp": "2025-12-14T18:52:55.747279+00:00", "meta": {"OBJECT_NAME": "GSAT0223 (GALILEO 27)", "OBJECT_ID": "2021-116A", "EPOCH": "2025-12-10T02:39:25.687008", "MEAN_MOTION": 1.70475768, "ECCENTRICITY": 0.000463, "INCLINATION": 57.2198, "RA_OF_ASC_NODE": 346.7831, "ARG_OF_PERICENTER": 251.6037, "MEAN_ANOMALY": 107.9349, "EPHEMERIS_TYPE": 0, "CLASSIFICATION_TYPE": "U", "NORAD_CAT_ID": 49809, "ELEMENT_SET_NO": 999, "REV_AT_EPOCH": 2495, "BSTAR": 0, "MEAN_MOTION_DOT": -8.7e-07, "MEAN_MOTION_DDOT": 0}, "tle": {"line1": "1 49809U 21116A   25344.11071397 -.00000087  00000+0  00000+0 0  9992", "line2": "2 49809  57.2198 346.7831 0004630 251.6037 107.9349  1.70475768 24951"}}, "geometry": {"type": "Point", "coordinates": [-19.154288563721323, -8.927558050835188]}}]}